{"type": "FeatureCollection", "features": [ {"type": "Feature", "properties": {"norad_id": 34870, "name": "IRIDIUM 33 DEB", "group": "iridium-33-debris", "lat": 84.11060227737075, "lon": -14.09827668658723, "alt_km": 623.0996591119529, "timestamp": "2025-12-27T19:21:59.131115+00:00", "meta": {"OBJECT_NAME": "IRIDIUM 33 DEB", "OBJECT_ID": "1997-051MQ", "EPOCH": "2025-12-27T02:46:31.066176", "MEAN_MOTION": 14.76712058, "ECCENTRICITY": 0.00184241, "INCLINATION": 86.3107, "RA_OF_ASC_NODE": 307.499, "ARG_OF_PERICENTER": 132.9493, "MEAN_ANOMALY": 239.9601, "EPHEMERIS_TYPE": 0, "CLASSIFICATION_TYPE": "U", "NORAD_CAT_ID": 34870, "ELEMENT_SET_NO": 999, "REV_AT_EPOCH": 89123, "BSTAR": 0.0017741165, "MEAN_MOTION_DOT": 0.00012485, "MEAN_MOTION_DDOT": 0}, "tle": {"line1": "1 34870U 97051MQ  25361.11563734  .00012485  00000+0  17741-2 0  9992", "line2": "2 34870  86.3107 307.4990 0018424 132.9493 239.9601 14.76712058891235"}}, "geometry": {"type": "Point", "coordinates": [-14.09827668658723, 84.11060227737075]}}, {"type": "Feature", "properties": {"norad_id": 34896, "name": "IRIDIUM 33 DEB", "group": "iridium-33-debris", "lat": 85.49889970493668, "lon": 85.3048196912661, "alt_km": 658.3888875144839, "timestamp": "2025-12-27T19:21:59.131125+00:00", "meta": {"OBJECT_NAME": "IRIDIUM 33 DEB", "OBJECT_ID": "1997-051MY", "EPOCH": "2025-12-24T04:12:44.288640", "MEAN_MOTION": 14.66381715, "ECCENTRICITY": 0.00257287, "INCLINATION": 86.3299, "RA_OF_ASC_NODE": 321.5555, "ARG_OF_PERICENTER": 173.6101, "MEAN_ANOMALY": 201.3064, "EPHEMERIS_TYPE": 0, "CLASSIFICATION_TYPE": "U", "NORAD_CAT_ID": 34896, "ELEMENT_SET_NO": 999, "REV_AT_EPOCH": 87787, "BSTAR": 0.00093038371, "MEAN_MOTION_DOT": 5.188e-05, "MEAN_MOTION_DDOT": 0}, "tle": {"line1": "1 34896U 97051MY  25358.17551260  .00005188  00000+0  93038-3 0  9999", "line2": "2 34896  86.3299 321.5555 0025728 173.6101 201.3064 14.66381715877873"}}, "geometry": {"type": "Point", "coordinates": [85.3048196912661, 85.49889970493668]}}, {"type": "Feature", "properties": {"norad_id": 34926, "name": "IRIDIUM 33 DEB", "group": "iridium-33-debris", "lat": -85.63631357915365, "lon": -61.181121933876355, "alt_km": 671.5823273890583, "timestamp": "2025-12-27T19:21:59.131134+00:00", "meta": {"OBJECT_NAME": "IRIDIUM 33 DEB", "OBJECT_ID": "1997-051NF", "EPOCH": "2025-12-27T12:06:07.885152", "MEAN_MOTION": 14.55106374, "ECCENTRICITY": 0.0074142, "INCLINATION": 86.1316, "RA_OF_ASC_NODE": 1.4225, "ARG_OF_PERICENTER": 241.393, "MEAN_ANOMALY": 245.6587, "EPHEMERIS_TYPE": 0, "CLASSIFICATION_TYPE": "U", "NORAD_CAT_ID": 34926, "ELEMENT_SET_NO": 999, "REV_AT_EPOCH": 86671, "BSTAR": 0.0059184, "MEAN_MOTION_DOT": 0.00026593, "MEAN_MOTION_DDOT": 0}, "tle": {"line1": "1 34926U 97051NF  25361.50425793  .00026593  00000+0  59184-2 0  9991", "line2": "2 34926  86.1316   1.4225 0074142 241.3930 245.6587 14.55106374866716"}}, "geometry": {"type": "Point", "coordinates": [-61.181121933876355, -85.63631357915365]}}, {"type": "Feature", "properties": {"norad_id": 34985, "name": "IRIDIUM 33 DEB", "group": "iridium-33-debris", "lat": 67.35206997378191, "lon": 59.20636688498013, "alt_km": 748.5063126233117, "timestamp": "2025-12-27T19:21:59.131143+00:00", "meta": {"OBJECT_NAME": "IRIDIUM 33 DEB", "OBJECT_ID": "1997-051NR", "EPOCH": "2025-12-26T21:58:10.172064", "MEAN_MOTION": 14.42068347, "ECCENTRICITY": 0.0022221, "INCLINATION": 86.3683, "RA_OF_ASC_NODE": 50.8313, "ARG_OF_PERICENTER": 172.8188, "MEAN_ANOMALY": 309.665, "EPHEMERIS_TYPE": 0, "CLASSIFICATION_TYPE": "U", "NORAD_CAT_ID": 34985, "ELEMENT_SET_NO": 999, "REV_AT_EPOCH": 87379, "BSTAR": 0.00068645, "MEAN_MOTION_DOT": 2.28e-05, "MEAN_MOTION_DDOT": 0}, "tle": {"line1": "1 34985U 97051NR  25360.91539551  .00002280  00000+0  68645-3 0  9998", "line2": "2 34985  86.3683  50.8313 0022221 172.8188 309.6650 14.42068347873791"}}, "geometry": {"type": "Point", "coordinates": [59.20636688498013, 67.35206997378191]}}, {"type": "Feature", "properties": {"norad_id": 35051, "name": "IRIDIUM 33 DEB", "group": "iridium-33-debris", "lat": -56.59109911414397, "lon": -3.2979697773499477, "alt_km": 742.1205792228566, "timestamp": "2025-12-27T19:21:59.131152+00:00", "meta": {"OBJECT_NAME": "IRIDIUM 33 DEB", "OBJECT_ID": "1997-051NX", "EPOCH": "2025-12-22T18:31:37.744896", "MEAN_MOTION": 14.47639956, "ECCENTRICITY": 0.0010302, "INCLINATION": 86.324, "RA_OF_ASC_NODE": 4.4893, "ARG_OF_PERICENTER": 63.2582, "MEAN_ANOMALY": 296.9674, "EPHEMERIS_TYPE": 0, "CLASSIFICATION_TYPE": "U", "NORAD_CAT_ID": 35051, "ELEMENT_SET_NO": 999, "REV_AT_EPOCH": 87141, "BSTAR": 0.00060447572, "MEAN_MOTION_DOT": 2.248e-05, "MEAN_MOTION_DDOT": 0}, "tle": {"line1": "1 35051U 97051NX  25356.77196464  .00002248  00000+0  60448-3 0  9991", "line2": "2 35051  86.3240   4.4893 0010302  63.2582 296.9674 14.47639956871417"}}, "geometry": {"type": "Point", "coordinates": [-3.2979697773499477, -56.59109911414397]}}, {"type": "Feature", "properties": {"norad_id": 35052, "name": "IRIDIUM 33 DEB", "group": "iridium-33-debris", "lat": -42.02915940528121, "lon": 10.69932576770505, "alt_km": 769.101126334308, "timestamp": "2025-12-27T19:21:59.131161+00:00", "meta": {"OBJECT_NAME": "IRIDIUM 33 DEB", "OBJECT_ID": "1997-051NY", "EPOCH": "2025-12-26T00:09:21.492000", "MEAN_MOTION": 14.38507246, "ECCENTRICITY": 0.00130035, "INCLINATION": 86.3301, "RA_OF_ASC_NODE": 14.7874, "ARG_OF_PERICENTER": 47.6773, "MEAN_ANOMALY": 312.5525, "EPHEMERIS_TYPE": 0, "CLASSIFICATION_TYPE": "U", "NORAD_CAT_ID": 35052, "ELEMENT_SET_NO": 999, "REV_AT_EPOCH": 87466, "BSTAR": 0.00018800221, "MEAN_MOTION_DOT": 5.94e-06, "MEAN_MOTION_DDOT": 0}, "tle": {"line1": "1 35052U 97051NY  25360.00649875  .00000594  00000+0  18800-3 0  9999", "line2": "2 35052  86.3301  14.7874 0013003  47.6773 312.5525 14.38507246874664"}}, "geometry": {"type": "Point", "coordinates": [10.69932576770505, -42.02915940528121]}}, {"type": "Feature", "properties": {"norad_id": 35080, "name": "IRIDIUM 33 DEB", "group": "iridium-33-debris", "lat": -55.00356976164988, "lon": -129.39847094036259, "alt_km": 624.2303332069587, "timestamp": "2025-12-27T19:21:59.131170+00:00", "meta": {"OBJECT_NAME": "IRIDIUM 33 DEB", "OBJECT_ID": "1997-051PF", "EPOCH": "2025-12-26T21:19:55.703424", "MEAN_MOTION": 14.87648712, "ECCENTRICITY": 0.0057997, "INCLINATION": 86.2085, "RA_OF_ASC_NODE": 45.606, "ARG_OF_PERICENTER": 130.4806, "MEAN_ANOMALY": 230.1496, "EPHEMERIS_TYPE": 0, "CLASSIFICATION_TYPE": "U", "NORAD_CAT_ID": 35080, "ELEMENT_SET_NO": 999, "REV_AT_EPOCH": 69898, "BSTAR": 0.0073607, "MEAN_MOTION_DOT": 0.00069659, "MEAN_MOTION_DDOT": 0}, "tle": {"line1": "1 35080U 97051PF  25360.88883916  .00069659  00000+0  73607-2 0  9994", "line2": "2 35080  86.2085  45.6060 0057997 130.4806 230.1496 14.87648712698980"}}, "geometry": {"type": "Point", "coordinates": [-129.39847094036259, -55.00356976164988]}}, {"type": "Feature", "properties": {"norad_id": 35297, "name": "IRIDIUM 33 DEB", "group": "iridium-33-debris", "lat": -47.408096804724636, "lon": -119.72749695768889, "alt_km": 756.6726052727099, "timestamp": "2025-12-27T19:21:59.131179+00:00", "meta": {"OBJECT_NAME": "IRIDIUM 33 DEB", "OBJECT_ID": "1997-051PM", "EPOCH": "2025-12-26T10:44:46.667040", "MEAN_MOTION": 14.4521519, "ECCENTRICITY": 0.0018076, "INCLINATION": 86.3846, "RA_OF_ASC_NODE": 56.909, "ARG_OF_PERICENTER": 100.7298, "MEAN_ANOMALY": 259.594, "EPHEMERIS_TYPE": 0, "CLASSIFICATION_TYPE": "U", "NORAD_CAT_ID": 35297, "ELEMENT_SET_NO": 999, "REV_AT_EPOCH": 70624, "BSTAR": 0.00060666, "MEAN_MOTION_DOT": 2.149e-05, "MEAN_MOTION_DDOT": 0}, "tle": {"line1": "1 35297U 97051PM  25360.44776235  .00002149  00000+0  60666-3 0  9994", "line2": "2 35297  86.3846  56.9090 0018076 100.7298 259.5940 14.45215190706246"}}, "geometry": {"type": "Point", "coordinates": [-119.72749695768889, -47.408096804724636]}}, {"type": "Feature", "properties": {"norad_id": 35299, "name": "IRIDIUM 33 DEB", "group": "iridium-33-debris", "lat": -72.44276556174485, "lon": 14.784406205925944, "alt_km": 787.7262411955226, "timestamp": "2025-12-27T19:21:59.131188+00:00", "meta": {"OBJECT_NAME": "IRIDIUM 33 DEB", "OBJECT_ID": "1997-051PP", "EPOCH": "2025-12-27T08:05:58.634016", "MEAN_MOTION": 14.4093611, "ECCENTRICITY": 0.0058386, "INCLINATION": 86.2877, "RA_OF_ASC_NODE": 26.83, "ARG_OF_PERICENTER": 55.7915, "MEAN_ANOMALY": 318.2873, "EPHEMERIS_TYPE": 0, "CLASSIFICATION_TYPE": "U", "NORAD_CAT_ID": 35299, "ELEMENT_SET_NO": 999, "REV_AT_EPOCH": 86541, "BSTAR": 0.00093759, "MEAN_MOTION_DOT": 3.09e-05, "MEAN_MOTION_DDOT": 0}, "tle": {"line1": "1 35299U 97051PP  25361.33748419  .00003090  00000+0  93759-3 0  9993", "line2": "2 35299  86.2877  26.8300 0058386  55.7915 318.2873 14.40936110865414"}}, "geometry": {"type": "Point", "coordinates": [14.784406205925944, -72.44276556174485]}}, {"type": "Feature", "properties": {"norad_id": 35480, "name": "IRIDIUM 33 DEB", "group": "iridium-33-debris", "lat": 30.014623792160858, "lon": -163.73164071246157, "alt_km": 724.6260045017079, "timestamp": "2025-12-27T19:21:59.131197+00:00", "meta": {"OBJECT_NAME": "IRIDIUM 33 DEB", "OBJECT_ID": "1997-051QA", "EPOCH": "2025-12-26T19:29:20.805504", "MEAN_MOTION": 14.49821486, "ECCENTRICITY": 0.00157721, "INCLINATION": 86.3559, "RA_OF_ASC_NODE": 18.8095, "ARG_OF_PERICENTER": 63.8067, "MEAN_ANOMALY": 296.4757, "EPHEMERIS_TYPE": 0, "CLASSIFICATION_TYPE": "U", "NORAD_CAT_ID": 35480, "ELEMENT_SET_NO": 999, "REV_AT_EPOCH": 87235, "BSTAR": 0.00059301191, "MEAN_MOTION_DOT": 2.31e-05, "MEAN_MOTION_DDOT": 0}, "tle": {"line1": "1 35480U 97051QA  25360.81204636  .00002310  00000+0  59301-3 0  9994", "line2": "2 35480  86.3559  18.8095 0015772  63.8067 296.4757 14.49821486872353"}}, "geometry": {"type": "Point", "coordinates": [-163.73164071246157, 30.014623792160858]}}]}